ONEWEB-0346             
1 49212U 21083AC  23251.34679013  .00000081  00000+0  17391-3 0  9990
2 49212  87.9296 176.8643 0001549  68.1534 291.9763 13.18685559 96498
ONEWEB-0348             
1 49213U 21083AD  23251.54991057 -.00000012  00000+0 -60909-4 0  9998
2 49213  87.9181 116.0732 0001490  50.3219 309.8046 13.20769724103149
ONEWEB-0350             
1 49214U 21083AE  23251.26205443  .00000487  00000+0  12994-2 0  9998
2 49214  87.9022 161.7555 0001870  61.3137 298.8180 13.13471676 97963
ONEWEB-0351             
1 49215U 21083AF  23251.54359673  .00000028  00000+0  37362-4 0  9994
2 49215  87.9190 116.0723 0002223  82.0933 278.0453 13.20773731103109
ONEWEB-0352             
1 49216U 21083AG  23251.31917456 -.00000230  00000+0 -66507-3 0  9998
2 49216  87.9086 161.7368 0002345  78.5003 281.6390 13.13466739 98066
ONEWEB-0354             
1 49217U 21083AH  23251.56886877  .00000104  00000+0  22382-3 0  9999
2 49217  87.9184 116.0504 0001999  69.5128 290.6219 13.20772739103147
ONEWEB-0355             
1 49218U 21083AJ  23251.27474439  .00000339  00000+0  89275-3 0  9999
2 49218  87.9085 161.7456 0002138  72.8691 287.2672 13.13470565 97937
ONEWEB-0357             
1 49219U 21083AK  23251.56465950  .00000067  00000+0  13312-3 0  9997
2 49219  87.9187 116.0701 0001781  76.5191 283.6140 13.20771024103149
